ZORKIY-2M-VPE           
1 67252U 25313E   26017.60408637  .00008524  00000+0  37911-3 0  9998
2 67252  97.4114  94.7638 0011344 148.3741 211.8179 15.21681146  3050
AIST-2T 1               
1 67253U 25313F   26017.63372088  .00052155  00000+0  52198-3 0  9995
2 67253  97.1034  94.9852 0010545 165.8104 194.3455 15.65349381  3128
AIST-2T 2               
1 67254U 25313G   26017.63517287  .00046406  00000+0  47231-3 0  9992
2 67254  97.1033  94.9828 0010136 168.1190 192.0311 15.64954560  3113
2025-313H               
1 67255U 25313H   26017.59410722  .00002163  00000+0  15432-3 0  9994
2 67255  97.3095  93.9301 0091452 127.3191 233.6414 15.02178757  3010
SITRO-AIS-57            
1 67256U 25313J   26017.62746206  .00010076  00000+0  47003-3 0  9999
2 67256  97.4105  94.7278 0017141 166.5430 193.6265 15.19918152  3052
SITRO-AIS-59            
1 67257U 25313K   26017.49533797  .00010207  00000+0  47582-3 0  9992
2 67257  97.4112  94.6007 0016871 169.0251 191.1355 15.19940945  3034
SITRO-AIS-58            
1 67258U 25313L   26017.62658345  .00009879  00000+0  46009-3 0  9991
2 67258  97.4107  94.7289 0016821 167.8667 192.2977 15.19985436  3052
2025-313M               
1 67259U 25313M   26017.49176799  .00013486  00000+0  62145-3 0  9993
2 67259  97.4150  94.6262 0016003 167.0072 193.1579 15.20283674  3038
SITRO-AIS-60            
1 67260U 25313N   26017.49332252  .00008828  00000+0  41072-3 0  9993
2 67260  97.4116  94.6042 0016201 168.5092 191.6516 15.20064730  3030
2025-313P               
1 67261U 25313P   26017.49015841  .00017860  00000+0  81657-3 0  9995
2 67261  97.4151  94.6288 0015772 167.3548 192.8087 15.20492932  3032
2025-313Q               
1 67262U 25313Q   26017.49168499  .00012003  00000+0  55396-3 0  9999
2 67262  97.4118  94.6069 0015858 169.2007 190.9572 15.20259672  3039
DCS-1                   
1 67263U 25313R   26017.49203695  .00011152  00000+0  51580-3 0  9993
2 67263  97.4131  94.6212 0015826 168.0647 192.0967 15.20204811  3033
