CCSDS_OMM_VERS = 2.0
CREATION_DATE  = 
ORIGINATOR     = 

OBJECT_NAME    = ZORKIY-2M-VPE
OBJECT_ID      = 2025-313E
CENTER_NAME    = EARTH
REF_FRAME      = TEME
TIME_SYSTEM    = UTC
MEAN_ELEMENT_THEORY = SGP/SGP4

EPOCH          = 2026-01-17T14:29:53.062368
MEAN_MOTION    = 15.21681146
ECCENTRICITY   = .00113447
INCLINATION    = 97.4114
RA_OF_ASC_NODE = 94.7638
ARG_OF_PERICENTER = 148.3741
MEAN_ANOMALY   = 211.8179

EPHEMERIS_TYPE = 0
CLASSIFICATION_TYPE = U
NORAD_CAT_ID   = 67252
ELEMENT_SET_NO = 999
REV_AT_EPOCH   = 305
BSTAR          = .37911359E-3
MEAN_MOTION_DOT = .8524E-4
MEAN_MOTION_DDOT = 0

CCSDS_OMM_VERS = 2.0
CREATION_DATE  = 
ORIGINATOR     = 

OBJECT_NAME    = AIST-2T 1
OBJECT_ID      = 2025-313F
CENTER_NAME    = EARTH
REF_FRAME      = TEME
TIME_SYSTEM    = UTC
MEAN_ELEMENT_THEORY = SGP/SGP4

EPOCH          = 2026-01-17T15:12:33.484032
MEAN_MOTION    = 15.65349381
ECCENTRICITY   = .00105453
INCLINATION    = 97.1034
RA_OF_ASC_NODE = 94.9852
ARG_OF_PERICENTER = 165.8104
MEAN_ANOMALY   = 194.3455

EPHEMERIS_TYPE = 0
CLASSIFICATION_TYPE = U
NORAD_CAT_ID   = 67253
ELEMENT_SET_NO = 999
REV_AT_EPOCH   = 312
BSTAR          = .52198027E-3
MEAN_MOTION_DOT = .52155E-3
MEAN_MOTION_DDOT = 0

CCSDS_OMM_VERS = 2.0
CREATION_DATE  = 
ORIGINATOR     = 

OBJECT_NAME    = AIST-2T 2
OBJECT_ID      = 2025-313G
CENTER_NAME    = EARTH
REF_FRAME      = TEME
TIME_SYSTEM    = UTC
MEAN_ELEMENT_THEORY = SGP/SGP4

EPOCH          = 2026-01-17T15:14:38.935968
MEAN_MOTION    = 15.64954560
ECCENTRICITY   = .00101361
INCLINATION    = 97.1033
RA_OF_ASC_NODE = 94.9828
ARG_OF_PERICENTER = 168.1190
MEAN_ANOMALY   = 192.0311

EPHEMERIS_TYPE = 0
CLASSIFICATION_TYPE = U
NORAD_CAT_ID   = 67254
ELEMENT_SET_NO = 999
REV_AT_EPOCH   = 311
BSTAR          = .47231007E-3
MEAN_MOTION_DOT = .46406E-3
MEAN_MOTION_DDOT = 0

CCSDS_OMM_VERS = 2.0
CREATION_DATE  = 
ORIGINATOR     = 

OBJECT_NAME    = 2025-313H
OBJECT_ID      = 2025-313H
CENTER_NAME    = EARTH
REF_FRAME      = TEME
TIME_SYSTEM    = UTC
MEAN_ELEMENT_THEORY = SGP/SGP4

EPOCH          = 2026-01-17T14:15:30.863808
MEAN_MOTION    = 15.02178757
ECCENTRICITY   = .0091452
INCLINATION    = 97.3095
RA_OF_ASC_NODE = 93.9301
ARG_OF_PERICENTER = 127.3191
MEAN_ANOMALY   = 233.6414

EPHEMERIS_TYPE = 0
CLASSIFICATION_TYPE = U
NORAD_CAT_ID   = 67255
ELEMENT_SET_NO = 999
REV_AT_EPOCH   = 301
BSTAR          = .15431578E-3
MEAN_MOTION_DOT = .2163E-4
MEAN_MOTION_DDOT = 0

CCSDS_OMM_VERS = 2.0
CREATION_DATE  = 
ORIGINATOR     = 

OBJECT_NAME    = SITRO-AIS-57
OBJECT_ID      = 2025-313J
CENTER_NAME    = EARTH
REF_FRAME      = TEME
TIME_SYSTEM    = UTC
MEAN_ELEMENT_THEORY = SGP/SGP4

EPOCH          = 2026-01-17T15:03:32.721984
MEAN_MOTION    = 15.19918152
ECCENTRICITY   = .00171418
INCLINATION    = 97.4105
RA_OF_ASC_NODE = 94.7278
ARG_OF_PERICENTER = 166.5430
MEAN_ANOMALY   = 193.6265

EPHEMERIS_TYPE = 0
CLASSIFICATION_TYPE = U
NORAD_CAT_ID   = 67256
ELEMENT_SET_NO = 999
REV_AT_EPOCH   = 305
BSTAR          = .47003017E-3
MEAN_MOTION_DOT = .10076E-3
MEAN_MOTION_DDOT = 0

CCSDS_OMM_VERS = 2.0
CREATION_DATE  = 
ORIGINATOR     = 

OBJECT_NAME    = SITRO-AIS-59
OBJECT_ID      = 2025-313K
CENTER_NAME    = EARTH
REF_FRAME      = TEME
TIME_SYSTEM    = UTC
MEAN_ELEMENT_THEORY = SGP/SGP4

EPOCH          = 2026-01-17T11:53:17.200608
MEAN_MOTION    = 15.19940945
ECCENTRICITY   = .00168711
INCLINATION    = 97.4112
RA_OF_ASC_NODE = 94.6007
ARG_OF_PERICENTER = 169.0251
MEAN_ANOMALY   = 191.1355

EPHEMERIS_TYPE = 0
CLASSIFICATION_TYPE = U
NORAD_CAT_ID   = 67257
ELEMENT_SET_NO = 999
REV_AT_EPOCH   = 303
BSTAR          = .47582349E-3
MEAN_MOTION_DOT = .10207E-3
MEAN_MOTION_DDOT = 0

CCSDS_OMM_VERS = 2.0
CREATION_DATE  = 
ORIGINATOR     = 

OBJECT_NAME    = SITRO-AIS-58
OBJECT_ID      = 2025-313L
CENTER_NAME    = EARTH
REF_FRAME      = TEME
TIME_SYSTEM    = UTC
MEAN_ELEMENT_THEORY = SGP/SGP4

EPOCH          = 2026-01-17T15:02:16.810080
MEAN_MOTION    = 15.19985436
ECCENTRICITY   = .00168216
INCLINATION    = 97.4107
RA_OF_ASC_NODE = 94.7289
ARG_OF_PERICENTER = 167.8667
MEAN_ANOMALY   = 192.2977

EPHEMERIS_TYPE = 0
CLASSIFICATION_TYPE = U
NORAD_CAT_ID   = 67258
ELEMENT_SET_NO = 999
REV_AT_EPOCH   = 305
BSTAR          = .46009178E-3
MEAN_MOTION_DOT = .9879E-4
MEAN_MOTION_DDOT = 0

CCSDS_OMM_VERS = 2.0
CREATION_DATE  = 
ORIGINATOR     = 

OBJECT_NAME    = 2025-313M
OBJECT_ID      = 2025-313M
CENTER_NAME    = EARTH
REF_FRAME      = TEME
TIME_SYSTEM    = UTC
MEAN_ELEMENT_THEORY = SGP/SGP4

EPOCH          = 2026-01-17T11:48:08.754336
MEAN_MOTION    = 15.20283674
ECCENTRICITY   = .00160032
INCLINATION    = 97.4150
RA_OF_ASC_NODE = 94.6262
ARG_OF_PERICENTER = 167.0072
MEAN_ANOMALY   = 193.1579

EPHEMERIS_TYPE = 0
CLASSIFICATION_TYPE = U
NORAD_CAT_ID   = 67259
ELEMENT_SET_NO = 999
REV_AT_EPOCH   = 303
BSTAR          = .62144508E-3
MEAN_MOTION_DOT = .13486E-3
MEAN_MOTION_DDOT = 0

CCSDS_OMM_VERS = 2.0
CREATION_DATE  = 
ORIGINATOR     = 

OBJECT_NAME    = SITRO-AIS-60
OBJECT_ID      = 2025-313N
CENTER_NAME    = EARTH
REF_FRAME      = TEME
TIME_SYSTEM    = UTC
MEAN_ELEMENT_THEORY = SGP/SGP4

EPOCH          = 2026-01-17T11:50:23.065728
MEAN_MOTION    = 15.20064730
ECCENTRICITY   = .00162014
INCLINATION    = 97.4116
RA_OF_ASC_NODE = 94.6042
ARG_OF_PERICENTER = 168.5092
MEAN_ANOMALY   = 191.6516

EPHEMERIS_TYPE = 0
CLASSIFICATION_TYPE = U
NORAD_CAT_ID   = 67260
ELEMENT_SET_NO = 999
REV_AT_EPOCH   = 303
BSTAR          = .41072096E-3
MEAN_MOTION_DOT = .8828E-4
MEAN_MOTION_DDOT = 0

CCSDS_OMM_VERS = 2.0
CREATION_DATE  = 
ORIGINATOR     = 

OBJECT_NAME    = 2025-313P
OBJECT_ID      = 2025-313P
CENTER_NAME    = EARTH
REF_FRAME      = TEME
TIME_SYSTEM    = UTC
MEAN_ELEMENT_THEORY = SGP/SGP4

EPOCH          = 2026-01-17T11:45:49.686624
MEAN_MOTION    = 15.20492932
ECCENTRICITY   = .0015772
INCLINATION    = 97.4151
RA_OF_ASC_NODE = 94.6288
ARG_OF_PERICENTER = 167.3548
MEAN_ANOMALY   = 192.8087

EPHEMERIS_TYPE = 0
CLASSIFICATION_TYPE = U
NORAD_CAT_ID   = 67261
ELEMENT_SET_NO = 999
REV_AT_EPOCH   = 303
BSTAR          = .81657282E-3
MEAN_MOTION_DOT = .1786E-3
MEAN_MOTION_DDOT = 0

CCSDS_OMM_VERS = 2.0
CREATION_DATE  = 
ORIGINATOR     = 

OBJECT_NAME    = 2025-313Q
OBJECT_ID      = 2025-313Q
CENTER_NAME    = EARTH
REF_FRAME      = TEME
TIME_SYSTEM    = UTC
MEAN_ELEMENT_THEORY = SGP/SGP4

EPOCH          = 2026-01-17T11:48:01.583136
MEAN_MOTION    = 15.20259672
ECCENTRICITY   = .00158581
INCLINATION    = 97.4118
RA_OF_ASC_NODE = 94.6069
ARG_OF_PERICENTER = 169.2007
MEAN_ANOMALY   = 190.9572

EPHEMERIS_TYPE = 0
CLASSIFICATION_TYPE = U
NORAD_CAT_ID   = 67262
ELEMENT_SET_NO = 999
REV_AT_EPOCH   = 303
BSTAR          = .55396084E-3
MEAN_MOTION_DOT = .12003E-3
MEAN_MOTION_DDOT = 0

CCSDS_OMM_VERS = 2.0
CREATION_DATE  = 
ORIGINATOR     = 

OBJECT_NAME    = DCS-1
OBJECT_ID      = 2025-313R
CENTER_NAME    = EARTH
REF_FRAME      = TEME
TIME_SYSTEM    = UTC
MEAN_ELEMENT_THEORY = SGP/SGP4

EPOCH          = 2026-01-17T11:48:31.992480
MEAN_MOTION    = 15.20204811
ECCENTRICITY   = .00158262
INCLINATION    = 97.4131
RA_OF_ASC_NODE = 94.6212
ARG_OF_PERICENTER = 168.0647
MEAN_ANOMALY   = 192.0967

EPHEMERIS_TYPE = 0
CLASSIFICATION_TYPE = U
NORAD_CAT_ID   = 67263
ELEMENT_SET_NO = 999
REV_AT_EPOCH   = 303
BSTAR          = .51580089E-3
MEAN_MOTION_DOT = .11152E-3
MEAN_MOTION_DDOT = 0

